[{"OBJECT_NAME":"STARLINK-32250","OBJECT_ID":"2024-144A","EPOCH":"2026-03-09T16:16:21.751392","MEAN_MOTION":15.30154966,"ECCENTRICITY":0.00013803,"INCLINATION":53.1607,"RA_OF_ASC_NODE":217.4507,"ARG_OF_PERICENTER":92.2396,"MEAN_ANOMALY":267.8763,"EPHEMERIS_TYPE":0,"CLASSIFICATION_TYPE":"U","NORAD_CAT_ID":60425,"ELEMENT_SET_NO":999,"REV_AT_EPOCH":8840,"BSTAR":0.00010924393,"MEAN_MOTION_DOT":2.873e-5,"MEAN_MOTION_DDOT":0},{"OBJECT_NAME":"NOAA 16 DEB","OBJECT_ID":"2000-055BK","EPOCH":"2026-03-09T02:17:10.174560","MEAN_MOTION":15.30191008,"ECCENTRICITY":0.00052528,"INCLINATION":98.9831,"RA_OF_ASC_NODE":305.6383,"ARG_OF_PERICENTER":26.64,"MEAN_ANOMALY":333.5104,"EPHEMERIS_TYPE":0,"CLASSIFICATION_TYPE":"U","NORAD_CAT_ID":41128,"ELEMENT_SET_NO":999,"REV_AT_EPOCH":53406,"BSTAR":0.017668961,"MEAN_MOTION_DOT":0.00549039,"MEAN_MOTION_DDOT":0}]
